[{"OBJECT_NAME":"STARLINK-30268","OBJECT_ID":"2023-115L","EPOCH":"2026-03-08T21:07:28.021152","MEAN_MOTION":15.26721238,"ECCENTRICITY":0.00014805,"INCLINATION":43.0036,"RA_OF_ASC_NODE":6.5067,"ARG_OF_PERICENTER":274.3297,"MEAN_ANOMALY":85.7385,"EPHEMERIS_TYPE":0,"CLASSIFICATION_TYPE":"U","NORAD_CAT_ID":57531,"ELEMENT_SET_NO":999,"REV_AT_EPOCH":14222,"BSTAR":-9.336672e-5,"MEAN_MOTION_DOT":-2.762e-5,"MEAN_MOTION_DDOT":0},{"OBJECT_NAME":"DMSP 5D-2 F13 DEB","OBJECT_ID":"1995-015HL","EPOCH":"2026-02-09T02:06:19.247328","MEAN_MOTION":15.12822218,"ECCENTRICITY":0.00117732,"INCLINATION":98.8603,"RA_OF_ASC_NODE":96.8879,"ARG_OF_PERICENTER":223.037,"MEAN_ANOMALY":136.9936,"EPHEMERIS_TYPE":0,"CLASSIFICATION_TYPE":"U","NORAD_CAT_ID":42294,"ELEMENT_SET_NO":999,"REV_AT_EPOCH":55633,"BSTAR":0.010466292,"MEAN_MOTION_DOT":0.00188804,"MEAN_MOTION_DDOT":0}]
